{"type": "FeatureCollection", "features": [{"type": "Feature", "properties": {"norad_id": 50032, "name": "COSMOS 1408 DEB", "group": "cosmos-1408-debris", "lat": -4.05161217342245, "lon": -135.17216869700405, "alt_km": 422.460706824495, "timestamp": "2025-12-26T14:28:47.972352+00:00", "meta": {"OBJECT_NAME": "COSMOS 1408 DEB", "OBJECT_ID": "1982-092RU", "EPOCH": "2025-12-25T14:23:00.706272", "MEAN_MOTION": 15.45820267, "ECCENTRICITY": 0.0016562, "INCLINATION": 82.5629, "RA_OF_ASC_NODE": 45.327, "ARG_OF_PERICENTER": 161.3291, "MEAN_ANOMALY": 198.8569, "EPHEMERIS_TYPE": 0, "CLASSIFICATION_TYPE": "U", "NORAD_CAT_ID": 50032, "ELEMENT_SET_NO": 999, "REV_AT_EPOCH": 22802, "BSTAR": 0.00010522, "MEAN_MOTION_DOT": 5.167e-05, "MEAN_MOTION_DDOT": 0}, "tle": {"line1": "1 50032U 82092RU  25359.59931373  .00005167  00000+0  10522-3 0  9996", "line2": "2 50032  82.5629  45.3270 0016562 161.3291 198.8569 15.45820267228028"}}, "geometry": {"type": "Point", "coordinates": [-135.17216869700405, -4.05161217342245]}}, {"type": "Feature", "properties": {"norad_id": 50058, "name": "COSMOS 1408 DEB", "group": "cosmos-1408-debris", "lat": -59.29918591055988, "lon": -112.55495994618336, "alt_km": 391.10316319676804, "timestamp": "2025-12-26T14:28:47.972373+00:00", "meta": {"OBJECT_NAME": "COSMOS 1408 DEB", "OBJECT_ID": "1982-092SW", "EPOCH": "2025-12-26T04:14:59.730144", "MEAN_MOTION": 15.64916769, "ECCENTRICITY": 0.00157548, "INCLINATION": 82.6117, "RA_OF_ASC_NODE": 55.2685, "ARG_OF_PERICENTER": 53.2736, "MEAN_ANOMALY": 306.9967, "EPHEMERIS_TYPE": 0, "CLASSIFICATION_TYPE": "U", "NORAD_CAT_ID": 50058, "ELEMENT_SET_NO": 999, "REV_AT_EPOCH": 23014, "BSTAR": 0.00032134543, "MEAN_MOTION_DOT": 0.00031703, "MEAN_MOTION_DDOT": 0}, "tle": {"line1": "1 50058U 82092SW  25360.17708021  .00031703  00000+0  32135-3 0  9991", "line2": "2 50058  82.6117  55.2685 0015754  53.2736 306.9967 15.64916769230148"}}, "geometry": {"type": "Point", "coordinates": [-112.55495994618336, -59.29918591055988]}}, {"type": "Feature", "properties": {"norad_id": 50404, "name": "COSMOS 1408 DEB", "group": "cosmos-1408-debris", "lat": 34.23784172096816, "lon": -153.8317655849785, "alt_km": 565.3160918860158, "timestamp": "2025-12-26T14:28:47.972388+00:00", "meta": {"OBJECT_NAME": "COSMOS 1408 DEB", "OBJECT_ID": "1982-092ADS", "EPOCH": "2025-12-25T00:18:07.841664", "MEAN_MOTION": 15.15742025, "ECCENTRICITY": 0.01667949, "INCLINATION": 82.202, "RA_OF_ASC_NODE": 202.4509, "ARG_OF_PERICENTER": 156.6613, "MEAN_ANOMALY": 204.2309, "EPHEMERIS_TYPE": 0, "CLASSIFICATION_TYPE": "U", "NORAD_CAT_ID": 50404, "ELEMENT_SET_NO": 999, "REV_AT_EPOCH": 21379, "BSTAR": 0.0033615862, "MEAN_MOTION_DOT": 0.00092417, "MEAN_MOTION_DDOT": 0}, "tle": {"line1": "1 50404U 82092ADS 25359.01259076  .00092417  00000+0  33616-2 0  9991", "line2": "2 50404  82.2020 202.4509 0166794 156.6613 204.2309 15.15742025213796"}}, "geometry": {"type": "Point", "coordinates": [-153.8317655849785, 34.23784172096816]}}, {"type": "Feature", "properties": {"norad_id": 50621, "name": "COSMOS 1408 DEB", "group": "cosmos-1408-debris", "lat": -61.94333401917852, "lon": -106.08525668368053, "alt_km": 417.64308476455153, "timestamp": "2025-12-26T14:28:47.972399+00:00", "meta": {"OBJECT_NAME": "COSMOS 1408 DEB", "OBJECT_ID": "1982-092ALR", "EPOCH": "2025-12-26T04:11:24.957888", "MEAN_MOTION": 15.573508, "ECCENTRICITY": 0.00292955, "INCLINATION": 82.5694, "RA_OF_ASC_NODE": 60.187, "ARG_OF_PERICENTER": 104.4386, "MEAN_ANOMALY": 256.0123, "EPHEMERIS_TYPE": 0, "CLASSIFICATION_TYPE": "U", "NORAD_CAT_ID": 50621, "ELEMENT_SET_NO": 999, "REV_AT_EPOCH": 22459, "BSTAR": 0.00035610621, "MEAN_MOTION_DOT": 0.00026635, "MEAN_MOTION_DDOT": 0}, "tle": {"line1": "1 50621U 82092ALR 25360.17459442  .00026635  00000+0  35611-3 0  9997", "line2": "2 50621  82.5694  60.1870 0029295 104.4386 256.0123 15.57350800224590"}}, "geometry": {"type": "Point", "coordinates": [-106.08525668368053, -61.94333401917852]}}]}